start=new Date('2022-12-15T00:00:00.000Z').valueOf();
sats=[{"EPOCH":"2022-12-14T08:28:49.852128","EPHEMERIS_TYPE":"0","RCS_SIZE":"LARGE","MEAN_MOTION_DOT":"0.00000117","ECCENTRICITY":"0.00026110","TIME_SYSTEM":"UTC","CLASSIFICATION_TYPE":"U","REF_FRAME":"TEME","ELEMENT_SET_NO":"999","MEAN_ELEMENT_THEORY":"SGP4","APOAPSIS":"541.546","TLE_LINE1":"1 52129U 22029AT  22348.35335477  .00000117  00000-0  25497-4 0  9990","FILE":"3698874","TLE_LINE2":"2 52129  53.2187 332.3354 0002611  30.0676 330.0466 15.08841943 42597","DECAY_DATE":null,"COUNTRY_CODE":"US","SEMIMAJOR_AXIS":"6917.874","GP_ID":"220367766","PERIAPSIS":"537.933","INCLINATION":"53.2187","MEAN_MOTION":"15.08841943","ARG_OF_PERICENTER":"30.0676","BSTAR":"0.00002549700000","REV_AT_EPOCH":"4259","LAUNCH_DATE":"2022-03-19","OBJECT_ID":"2022-029AT","MEAN_ANOMALY":"330.0466","OBJECT_NAME":"STARLINK-3661","OBJECT_TYPE":"PAYLOAD","CENTER_NAME":"EARTH","RA_OF_ASC_NODE":"332.3354","SITE":"AFETR","MEAN_MOTION_DDOT":"0.0000000000000","PERIOD":"95.437","NORAD_CAT_ID":"52129"},{"FILE":"3699647","TLE_LINE2":"2 52131  53.2193 330.8850 0001589 312.6664  47.4194 15.08851199 42647","TLE_LINE1":"1 52131U 22029AV  22348.68085618 -.00001358  00000-0 -67237-4 0  9996","MEAN_ELEMENT_THEORY":"SGP4","APOAPSIS":"540.810","ELEMENT_SET_NO":"999","REF_FRAME":"TEME","CLASSIFICATION_TYPE":"U","TIME_SYSTEM":"UTC","ECCENTRICITY":"0.00015890","MEAN_MOTION_DOT":"-0.00001358","RCS_SIZE":"LARGE","EPHEMERIS_TYPE":"0","EPOCH":"2022-12-14T16:20:25.973952","NORAD_CAT_ID":"52131","MEAN_MOTION_DDOT":"0.0000000000000","PERIOD":"95.437","SITE":"AFETR","CENTER_NAME":"EARTH","RA_OF_ASC_NODE":"330.8850","OBJECT_TYPE":"PAYLOAD","OBJECT_NAME":"STARLINK-3711","MEAN_ANOMALY":"47.4194","OBJECT_ID":"2022-029AV","LAUNCH_DATE":"2022-03-19","REV_AT_EPOCH":"4264","BSTAR":"-0.00006723700000","MEAN_MOTION":"15.08851199","ARG_OF_PERICENTER":"312.6664","INCLINATION":"53.2193","PERIAPSIS":"538.612","GP_ID":"220410791","SEMIMAJOR_AXIS":"6917.846","COUNTRY_CODE":"US","DECAY_DATE":null},{"SITE":"AFETR","CENTER_NAME":"EARTH","RA_OF_ASC_NODE":"330.8517","OBJECT_TYPE":"PAYLOAD","NORAD_CAT_ID":"52132","MEAN_MOTION_DDOT":"0.0000000000000","PERIOD":"95.437","GP_ID":"220410537","SEMIMAJOR_AXIS":"6917.867","DECAY_DATE":null,"COUNTRY_CODE":"US","INCLINATION":"53.2201","PERIAPSIS":"537.698","REV_AT_EPOCH":"4264","BSTAR":"0.00008299000000","ARG_OF_PERICENTER":"28.0447","MEAN_MOTION":"15.08844222","OBJECT_NAME":"STARLINK-3718","MEAN_ANOMALY":"332.0704","OBJECT_ID":"2022-029AW","LAUNCH_DATE":"2022-03-19","ELEMENT_SET_NO":"999","TLE_LINE1":"1 52132U 22029AW  22348.68823827  .00001033  00000-0  82990-4 0  9990","MEAN_ELEMENT_THEORY":"SGP4","APOAPSIS":"541.767","TLE_LINE2":"2 52132  53.2201 330.8517 0002941  28.0447 332.0704 15.08844222 42647","FILE":"3699647","EPHEMERIS_TYPE":"0","EPOCH":"2022-12-14T16:31:03.786528","ECCENTRICITY":"0.00029410","MEAN_MOTION_DOT":"0.00001033","RCS_SIZE":"LARGE","REF_FRAME":"TEME","CLASSIFICATION_TYPE":"U","TIME_SYSTEM":"UTC"},{"MEAN_MOTION":"15.08834762","ARG_OF_PERICENTER":"32.2727","BSTAR":"-0.00003151700000","REV_AT_EPOCH":"4264","LAUNCH_DATE":"2022-03-19","OBJECT_ID":"2022-029AX","MEAN_ANOMALY":"327.8408","OBJECT_NAME":"STARLINK-3707","COUNTRY_CODE":"US","DECAY_DATE":null,"SEMIMAJOR_AXIS":"6917.896","GP_ID":"220409295","INCLINATION":"53.2183","PERIAPSIS":"538.143","MEAN_MOTION_DDOT":"0.0000000000000","PERIOD":"95.438","NORAD_CAT_ID":"52133","OBJECT_TYPE":"PAYLOAD","RA_OF_ASC_NODE":"330.9132","CENTER_NAME":"EARTH","SITE":"AFETR","RCS_SIZE":"LARGE","MEAN_MOTION_DOT":"-0.00000790","ECCENTRICITY":"0.00023390","TIME_SYSTEM":"UTC","CLASSIFICATION_TYPE":"U","REF_FRAME":"TEME","EPOCH":"2022-12-14T16:09:51.835968","EPHEMERIS_TYPE":"0","MEAN_ELEMENT_THEORY":"SGP4","APOAPSIS":"541.379","TLE_LINE1":"1 52133U 22029AX  22348.67351662 -.00000790  00000-0 -31517-4 0  9993","FILE":"3699647","TLE_LINE2":"2 52133  53.2183 330.9132 0002339  32.2727 327.8408 15.08834762 42641","ELEMENT_SET_NO":"999"},{"EPHEMERIS_TYPE":"0","EPOCH":"2022-12-14T16:15:09.998784","REF_FRAME":"TEME","CLASSIFICATION_TYPE":"U","TIME_SYSTEM":"UTC","ECCENTRICITY":"0.00025810","MEAN_MOTION_DOT":"0.00000011","RCS_SIZE":"LARGE","ELEMENT_SET_NO":"999","FILE":"3699647","TLE_LINE2":"2 52134  53.2191 330.8940 0002581  32.6405 327.4746 15.08839759 42645","TLE_LINE1":"1 52134U 22029AY  22348.67719906  .00000011  00000-0  18818-4 0  9996","APOAPSIS":"541.532","MEAN_ELEMENT_THEORY":"SGP4","INCLINATION":"53.2191","PERIAPSIS":"537.961","GP_ID":"220409541","SEMIMAJOR_AXIS":"6917.881","DECAY_DATE":null,"COUNTRY_CODE":"US","OBJECT_NAME":"STARLINK-3721","MEAN_ANOMALY":"327.4746","OBJECT_ID":"2022-029AY","LAUNCH_DATE":"2022-03-19","REV_AT_EPOCH":"4264","BSTAR":"0.00001881800000","ARG_OF_PERICENTER":"32.6405","MEAN_MOTION":"15.08839759","SITE":"AFETR","RA_OF_ASC_NODE":"330.8940","CENTER_NAME":"EARTH","OBJECT_TYPE":"PAYLOAD","NORAD_CAT_ID":"52134","PERIOD":"95.438","MEAN_MOTION_DDOT":"0.0000000000000"},{"MEAN_ANOMALY":"336.5074","OBJECT_NAME":"STARLINK-3729","LAUNCH_DATE":"2022-03-19","OBJECT_ID":"2022-029AZ","REV_AT_EPOCH":"4260","BSTAR":"0.00000876940000","MEAN_MOTION":"15.08840891","ARG_OF_PERICENTER":"23.6046","INCLINATION":"53.2193","PERIAPSIS":"537.796","GP_ID":"220366533","SEMIMAJOR_AXIS":"6917.878","COUNTRY_CODE":"US","DECAY_DATE":null,"NORAD_CAT_ID":"52135","PERIOD":"95.437","MEAN_MOTION_DDOT":"0.0000000000000","SITE":"AFETR","RA_OF_ASC_NODE":"332.1573","CENTER_NAME":"EARTH","OBJECT_TYPE":"PAYLOAD","REF_FRAME":"TEME","CLASSIFICATION_TYPE":"U","TIME_SYSTEM":"UTC","ECCENTRICITY":"0.00028140","MEAN_MOTION_DOT":"-0.00000149","RCS_SIZE":"LARGE","EPHEMERIS_TYPE":"0","EPOCH":"2022-12-14T09:32:25.213920","FILE":"3698874","TLE_LINE2":"2 52135  53.2193 332.1573 0002814  23.6046 336.5074 15.08840891 42605","TLE_LINE1":"1 52135U 22029AZ  22348.39751405 -.00000149  00000-0  87694-5 0  9998","MEAN_ELEMENT_THEORY":"SGP4","APOAPSIS":"541.689","ELEMENT_SET_NO":"999"},{"NORAD_CAT_ID":"52136","PERIOD":"95.438","MEAN_MOTION_DDOT":"0.0000000000000","OBJECT_TYPE":"PAYLOAD","SITE":"AFETR","CENTER_NAME":"EARTH","RA_OF_ASC_NODE":"332.1203","BSTAR":"0.00003182800000","ARG_OF_PERICENTER":"35.8154","MEAN_MOTION":"15.08839693","REV_AT_EPOCH":"4260","OBJECT_ID":"2022-029BA","LAUNCH_DATE":"2022-03-19","OBJECT_NAME":"STARLINK-3720","MEAN_ANOMALY":"324.2992","SEMIMAJOR_AXIS":"6917.881","COUNTRY_CODE":"US","DECAY_DATE":null,"GP_ID":"220367279","INCLINATION":"53.2182","PERIAPSIS":"538.158","APOAPSIS":"541.335","MEAN_ELEMENT_THEORY":"SGP4","TLE_LINE1":"1 52136U 22029BA  22348.40487683  .00000218  00000-0  31828-4 0  9998","TLE_LINE2":"2 52136  53.2182 332.1203 0002296  35.8154 324.2992 15.08839693 42604","FILE":"3698874","ELEMENT_SET_NO":"999","MEAN_MOTION_DOT":"0.00000218","RCS_SIZE":"LARGE","ECCENTRICITY":"0.00022960","TIME_SYSTEM":"UTC","REF_FRAME":"TEME","CLASSIFICATION_TYPE":"U","EPHEMERIS_TYPE":"0","EPOCH":"2022-12-14T09:43:01.358112"},{"NORAD_CAT_ID":"52137","PERIOD":"95.438","MEAN_MOTION_DDOT":"0.0000000000000","OBJECT_TYPE":"PAYLOAD","SITE":"AFETR","CENTER_NAME":"EARTH","RA_OF_ASC_NODE":"330.9806","LAUNCH_DATE":"2022-03-19","OBJECT_ID":"2022-029BB","OBJECT_NAME":"STARLINK-3733","MEAN_ANOMALY":"332.5139","BSTAR":"0.00007249600000","ARG_OF_PERICENTER":"27.5994","MEAN_MOTION":"15.08837896","REV_AT_EPOCH":"4264","INCLINATION":"53.2180","PERIAPSIS":"537.908","SEMIMAJOR_AXIS":"6917.887","DECAY_DATE":null,"COUNTRY_CODE":"US","GP_ID":"220409796","FILE":"3699647","TLE_LINE2":"2 52137  53.2180 330.9806 0002665  27.5994 332.5139 15.08837896 42640","APOAPSIS":"541.595","MEAN_ELEMENT_THEORY":"SGP4","TLE_LINE1":"1 52137U 22029BB  22348.65879267  .00000865  00000-0  72496-4 0  9993","ELEMENT_SET_NO":"999","TIME_SYSTEM":"UTC","REF_FRAME":"TEME","CLASSIFICATION_TYPE":"U","MEAN_MOTION_DOT":"0.00000865","RCS_SIZE":"LARGE","ECCENTRICITY":"0.00026650","EPHEMERIS_TYPE":"0","EPOCH":"2022-12-14T15:48:39.686688"},{"DECAY_DATE":null,"COUNTRY_CODE":"US","SEMIMAJOR_AXIS":"6917.869","GP_ID":"220410042","PERIAPSIS":"538.139","INCLINATION":"53.2177","MEAN_MOTION":"15.08843584","ARG_OF_PERICENTER":"36.2967","BSTAR":"0.00015399000000","REV_AT_EPOCH":"4264","OBJECT_ID":"2022-029BC","LAUNCH_DATE":"2022-03-19","MEAN_ANOMALY":"323.8181","OBJECT_NAME":"STARLINK-3723","OBJECT_TYPE":"PAYLOAD","RA_OF_ASC_NODE":"330.9504","CENTER_NAME":"EARTH","SITE":"AFETR","MEAN_MOTION_DDOT":"0.0000000000000","PERIOD":"95.437","NORAD_CAT_ID":"52138","EPOCH":"2022-12-14T15:59:15.701280","EPHEMERIS_TYPE":"0","RCS_SIZE":"LARGE","MEAN_MOTION_DOT":"0.00002164","ECCENTRICITY":"0.00023060","TIME_SYSTEM":"UTC","CLASSIFICATION_TYPE":"U","REF_FRAME":"TEME","ELEMENT_SET_NO":"999","MEAN_ELEMENT_THEORY":"SGP4","APOAPSIS":"541.330","TLE_LINE1":"1 52138U 22029BC  22348.66615395  .00002164  00000-0  15399-3 0  9997","TLE_LINE2":"2 52138  53.2177 330.9504 0002306  36.2967 323.8181 15.08843584 42642","FILE":"3699647"},{"INCLINATION":"53.2180","PERIAPSIS":"538.097","GP_ID":"220410792","SEMIMAJOR_AXIS":"6917.879","COUNTRY_CODE":"US","DECAY_DATE":null,"OBJECT_NAME":"STARLINK-3730","MEAN_ANOMALY":"337.0098","LAUNCH_DATE":"2022-03-19","OBJECT_ID":"2022-029BD","REV_AT_EPOCH":"4250","BSTAR":"0.00010486000000","ARG_OF_PERICENTER":"23.1001","MEAN_MOTION":"15.08840483","SITE":"AFETR","CENTER_NAME":"EARTH","RA_OF_ASC_NODE":"340.7379","OBJECT_TYPE":"PAYLOAD","NORAD_CAT_ID":"52139","PERIOD":"95.438","MEAN_MOTION_DDOT":"0.0000000000000","EPHEMERIS_TYPE":"0","EPOCH":"2022-12-14T17:06:49.683456","REF_FRAME":"TEME","CLASSIFICATION_TYPE":"U","TIME_SYSTEM":"UTC","ECCENTRICITY":"0.00023810","MEAN_MOTION_DOT":"0.00001381","RCS_SIZE":"LARGE","ELEMENT_SET_NO":"999","TLE_LINE2":"2 52139  53.2180 340.7379 0002381  23.1001 337.0098 15.08840483 42507","FILE":"3699647","TLE_LINE1":"1 52139U 22029BD  22348.71307504  .00001381  00000-0  10486-3 0  9996","MEAN_ELEMENT_THEORY":"SGP4","APOAPSIS":"541.391"}];
